[{"OBJECT_NAME":"SITRO-AIS 8 (ANOKHIN)","OBJECT_ID":"2023-091AD","EPOCH":"2026-04-05T14:40:28.054848","MEAN_MOTION":15.30271993,"ECCENTRICITY":0.00104535,"INCLINATION":97.5114,"RA_OF_ASC_NODE":160.2004,"ARG_OF_PERICENTER":3.7352,"MEAN_ANOMALY":356.3965,"EPHEMERIS_TYPE":0,"CLASSIFICATION_TYPE":"U","NORAD_CAT_ID":57193,"ELEMENT_SET_NO":999,"REV_AT_EPOCH":15334,"BSTAR":0.00056327074,"MEAN_MOTION_DOT":0.00016461,"MEAN_MOTION_DDOT":0},{"OBJECT_NAME":"SITRO-AIS 7 (FARTUSHNIY)","OBJECT_ID":"2023-091AE","EPOCH":"2026-04-05T14:41:46.258944","MEAN_MOTION":15.24577724,"ECCENTRICITY":0.00121184,"INCLINATION":97.5126,"RA_OF_ASC_NODE":158.2311,"ARG_OF_PERICENTER":11.2246,"MEAN_ANOMALY":348.926,"EPHEMERIS_TYPE":0,"CLASSIFICATION_TYPE":"U","NORAD_CAT_ID":57194,"ELEMENT_SET_NO":999,"REV_AT_EPOCH":15321,"BSTAR":0.00033205687,"MEAN_MOTION_DOT":8.127e-5,"MEAN_MOTION_DDOT":0},{"OBJECT_NAME":"AVION KALUGA 650","OBJECT_ID":"2023-091AF","EPOCH":"2026-04-05T13:09:30.676608","MEAN_MOTION":15.19609154,"ECCENTRICITY":0.00105452,"INCLINATION":97.5157,"RA_OF_ASC_NODE":155.435,"ARG_OF_PERICENTER":13.1842,"MEAN_ANOMALY":346.9666,"EPHEMERIS_TYPE":0,"CLASSIFICATION_TYPE":"U","NORAD_CAT_ID":57195,"ELEMENT_SET_NO":999,"REV_AT_EPOCH":15299,"BSTAR":0.00034516424,"MEAN_MOTION_DOT":7.293e-5,"MEAN_MOTION_DDOT":0},{"OBJECT_NAME":"HORS 2","OBJECT_ID":"2023-091AG","EPOCH":"2026-04-05T13:10:10.526016","MEAN_MOTION":15.3013141,"ECCENTRICITY":0.00076098,"INCLINATION":97.5144,"RA_OF_ASC_NODE":161.6703,"ARG_OF_PERICENTER":350.8124,"MEAN_ANOMALY":9.2975,"EPHEMERIS_TYPE":0,"CLASSIFICATION_TYPE":"U","NORAD_CAT_ID":57196,"ELEMENT_SET_NO":999,"REV_AT_EPOCH":15341,"BSTAR":0.0005611096,"MEAN_MOTION_DOT":0.00016314,"MEAN_MOTION_DDOT":0},{"OBJECT_NAME":"A-SEANSAT-PG1","OBJECT_ID":"2023-091AH","EPOCH":"2026-04-05T13:17:49.624512","MEAN_MOTION":15.34564712,"ECCENTRICITY":0.0006675,"INCLINATION":97.5132,"RA_OF_ASC_NODE":163.707,"ARG_OF_PERICENTER":347.2394,"MEAN_ANOMALY":12.8679,"EPHEMERIS_TYPE":0,"CLASSIFICATION_TYPE":"U","NORAD_CAT_ID":57197,"ELEMENT_SET_NO":999,"REV_AT_EPOCH":15356,"BSTAR":0.00065585967,"MEAN_MOTION_DOT":0.00021933,"MEAN_MOTION_DDOT":0},{"OBJECT_NAME":"SITRO-AIS 10 (BURDAEV)","OBJECT_ID":"2023-091AK","EPOCH":"2026-04-05T11:22:53.095296","MEAN_MOTION":15.35998645,"ECCENTRICITY":0.00059213,"INCLINATION":97.5131,"RA_OF_ASC_NODE":164.4135,"ARG_OF_PERICENTER":342.0397,"MEAN_ANOMALY":18.0636,"EPHEMERIS_TYPE":0,"CLASSIFICATION_TYPE":"U","NORAD_CAT_ID":57199,"ELEMENT_SET_NO":999,"REV_AT_EPOCH":15359,"BSTAR":0.00071653914,"MEAN_MOTION_DOT":0.00025098,"MEAN_MOTION_DDOT":0},{"OBJECT_NAME":"SITRO-AIS 9 (SHCHUKIN)","OBJECT_ID":"2023-091AM","EPOCH":"2026-04-05T14:37:48.931104","MEAN_MOTION":15.35584968,"ECCENTRICITY":0.00061449,"INCLINATION":97.5128,"RA_OF_ASC_NODE":164.3342,"ARG_OF_PERICENTER":341.7696,"MEAN_ANOMALY":18.3326,"EPHEMERIS_TYPE":0,"CLASSIFICATION_TYPE":"U","NORAD_CAT_ID":57201,"ELEMENT_SET_NO":999,"REV_AT_EPOCH":15360,"BSTAR":0.00066843064,"MEAN_MOTION_DOT":0.00023094,"MEAN_MOTION_DDOT":0},{"OBJECT_NAME":"UTMN 2 (RS27S)","OBJECT_ID":"2023-091AP","EPOCH":"2026-04-05T14:02:22.578720","MEAN_MOTION":15.30341634,"ECCENTRICITY":0.00074386,"INCLINATION":97.5141,"RA_OF_ASC_NODE":161.8789,"ARG_OF_PERICENTER":346.1177,"MEAN_ANOMALY":13.9857,"EPHEMERIS_TYPE":0,"CLASSIFICATION_TYPE":"U","NORAD_CAT_ID":57203,"ELEMENT_SET_NO":999,"REV_AT_EPOCH":15343,"BSTAR":0.00056174643,"MEAN_MOTION_DOT":0.00016439,"MEAN_MOTION_DDOT":0},{"OBJECT_NAME":"SITRO-AIS 12 (SMIRENNIY)","OBJECT_ID":"2023-091AQ","EPOCH":"2026-04-05T13:09:35.172864","MEAN_MOTION":15.35849676,"ECCENTRICITY":0.0005689,"INCLINATION":97.514,"RA_OF_ASC_NODE":164.6951,"ARG_OF_PERICENTER":335.6016,"MEAN_ANOMALY":24.4958,"EPHEMERIS_TYPE":0,"CLASSIFICATION_TYPE":"U","NORAD_CAT_ID":57204,"ELEMENT_SET_NO":999,"REV_AT_EPOCH":15361,"BSTAR":0.00070441146,"MEAN_MOTION_DOT":0.00024551,"MEAN_MOTION_DDOT":0},{"OBJECT_NAME":"SITRO-AIS 11 (SHEFFER)","OBJECT_ID":"2023-091AU","EPOCH":"2026-04-05T13:55:47.280576","MEAN_MOTION":15.36224246,"ECCENTRICITY":0.00055678,"INCLINATION":97.5138,"RA_OF_ASC_NODE":164.932,"ARG_OF_PERICENTER":334.763,"MEAN_ANOMALY":25.334,"EPHEMERIS_TYPE":0,"CLASSIFICATION_TYPE":"U","NORAD_CAT_ID":57208,"ELEMENT_SET_NO":999,"REV_AT_EPOCH":15363,"BSTAR":0.00066211459,"MEAN_MOTION_DOT":0.00023347,"MEAN_MOTION_DDOT":0},{"OBJECT_NAME":"H2SAT (HEINRICH HERTZ)","OBJECT_ID":"2023-093A","EPOCH":"2026-04-05T05:28:38.784288","MEAN_MOTION":1.00270381,"ECCENTRICITY":0.0001127,"INCLINATION":0.013,"RA_OF_ASC_NODE":208.8461,"ARG_OF_PERICENTER":251.1253,"MEAN_ANOMALY":176.4154,"EPHEMERIS_TYPE":0,"CLASSIFICATION_TYPE":"U","NORAD_CAT_ID":57213,"ELEMENT_SET_NO":999,"REV_AT_EPOCH":1018,"BSTAR":0,"MEAN_MOTION_DOT":0,"MEAN_MOTION_DDOT":0},{"OBJECT_NAME":"KUZGTU 1 (RS47S)","OBJECT_ID":"2023-091AV","EPOCH":"2026-04-05T14:07:11.748288","MEAN_MOTION":15.28275072,"ECCENTRICITY":0.00108299,"INCLINATION":97.5123,"RA_OF_ASC_NODE":159.3987,"ARG_OF_PERICENTER":0.9668,"MEAN_ANOMALY":359.1591,"EPHEMERIS_TYPE":0,"CLASSIFICATION_TYPE":"U","NORAD_CAT_ID":57217,"ELEMENT_SET_NO":999,"REV_AT_EPOCH":15328,"BSTAR":0.00055970131,"MEAN_MOTION_DOT":0.00015382,"MEAN_MOTION_DDOT":0},{"OBJECT_NAME":"QIANKUN-1","OBJECT_ID":"2023-103B","EPOCH":"2026-04-05T09:46:23.641248","MEAN_MOTION":16.07705487,"ECCENTRICITY":0.00492175,"INCLINATION":96.1818,"RA_OF_ASC_NODE":145.2037,"ARG_OF_PERICENTER":140.0168,"MEAN_ANOMALY":220.4758,"EPHEMERIS_TYPE":0,"CLASSIFICATION_TYPE":"U","NORAD_CAT_ID":57422,"ELEMENT_SET_NO":999,"REV_AT_EPOCH":15560,"BSTAR":6.5081472e-5,"MEAN_MOTION_DOT":0.00061543,"MEAN_MOTION_DDOT":1.653173e-6},{"OBJECT_NAME":"FENGYUN 3F","OBJECT_ID":"2023-111A","EPOCH":"2026-04-05T14:32:41.167392","MEAN_MOTION":14.19926328,"ECCENTRICITY":8.015e-5,"INCLINATION":98.6876,"RA_OF_ASC_NODE":166.9538,"ARG_OF_PERICENTER":87.9221,"MEAN_ANOMALY":272.2047,"EPHEMERIS_TYPE":0,"CLASSIFICATION_TYPE":"U","NORAD_CAT_ID":57490,"ELEMENT_SET_NO":999,"REV_AT_EPOCH":13856,"BSTAR":7.8808522e-5,"MEAN_MOTION_DOT":1.24e-6,"MEAN_MOTION_DDOT":0},{"OBJECT_NAME":"METEOR 2-1 DEB","OBJECT_ID":"1975-064F","EPOCH":"2026-03-25T10:02:57.299136","MEAN_MOTION":14.28613992,"ECCENTRICITY":0.00064186,"INCLINATION":81.272,"RA_OF_ASC_NODE":83.0815,"ARG_OF_PERICENTER":351.0625,"MEAN_ANOMALY":9.044,"EPHEMERIS_TYPE":0,"CLASSIFICATION_TYPE":"U","NORAD_CAT_ID":57492,"ELEMENT_SET_NO":999,"REV_AT_EPOCH":39102,"BSTAR":0.0019210405,"MEAN_MOTION_DOT":4.836e-5,"MEAN_MOTION_DDOT":0},{"OBJECT_NAME":"HJ-2F","OBJECT_ID":"2023-116A","EPOCH":"2026-04-05T14:16:07.610592","MEAN_MOTION":15.21320904,"ECCENTRICITY":0.00068981,"INCLINATION":97.3872,"RA_OF_ASC_NODE":102.1281,"ARG_OF_PERICENTER":303.6385,"MEAN_ANOMALY":56.4192,"EPHEMERIS_TYPE":0,"CLASSIFICATION_TYPE":"U","NORAD_CAT_ID":57519,"ELEMENT_SET_NO":999,"REV_AT_EPOCH":14771,"BSTAR":0.00045538066,"MEAN_MOTION_DOT":0.00010136,"MEAN_MOTION_DDOT":0}]
