SITRO-AIS 8 (ANOKHIN)   
1 57193U 23091AD  26095.61143582  .00016461  00000+0  56327-3 0  9995
2 57193  97.5114 160.2004 0010453   3.7352 356.3965 15.30271993153343
SITRO-AIS 7 (FARTUSHNIY)
1 57194U 23091AE  26095.61234096  .00008127  00000+0  33206-3 0  9998
2 57194  97.5126 158.2311 0012118  11.2246 348.9260 15.24577724153216
AVION KALUGA 650        
1 57195U 23091AF  26095.54827172  .00007293  00000+0  34516-3 0  9992
2 57195  97.5157 155.4350 0010545  13.1842 346.9666 15.19609154152997
HORS 2                  
1 57196U 23091AG  26095.54873294  .00016314  00000+0  56111-3 0  9998
2 57196  97.5144 161.6703 0007609 350.8124   9.2975 15.30131410153414
A-SEANSAT-PG1           
1 57197U 23091AH  26095.55404658  .00021933  00000+0  65586-3 0  9993
2 57197  97.5132 163.7070 0006675 347.2394  12.8679 15.34564712153569
SITRO-AIS 10 (BURDAEV)  
1 57199U 23091AK  26095.47422564  .00025098  00000+0  71654-3 0  9991
2 57199  97.5131 164.4135 0005921 342.0397  18.0636 15.35998645153590
SITRO-AIS 9 (SHCHUKIN)  
1 57201U 23091AM  26095.60959411  .00023094  00000+0  66843-3 0  9994
2 57201  97.5128 164.3342 0006144 341.7696  18.3326 15.35584968153605
UTMN 2 (RS27S)          
1 57203U 23091AP  26095.58498355  .00016439  00000+0  56175-3 0  9990
2 57203  97.5141 161.8789 0007438 346.1177  13.9857 15.30341634153436
SITRO-AIS 12 (SMIRENNIY)
1 57204U 23091AQ  26095.54832376  .00024551  00000+0  70441-3 0  9998
2 57204  97.5140 164.6951 0005689 335.6016  24.4958 15.35849676153612
SITRO-AIS 11 (SHEFFER)  
1 57208U 23091AU  26095.58040834  .00023347  00000+0  66211-3 0  9998
2 57208  97.5138 164.9320 0005567 334.7630  25.3340 15.36224246153631
H2SAT (HEINRICH HERTZ)  
1 57213U 23093A   26095.22822667  .00000000  00000+0  00000+0 0  9990
2 57213   0.0130 208.8461 0001127 251.1253 176.4154  1.00270381 10183
KUZGTU 1 (RS47S)        
1 57217U 23091AV  26095.58833042  .00015382  00000+0  55970-3 0  9999
2 57217  97.5123 159.3987 0010829   0.9668 359.1591 15.28275072153283
QIANKUN-1               
1 57422U 23103B   26095.40721807  .00061543  16532-5  65081-4 0  9995
2 57422  96.1818 145.2037 0049217 140.0168 220.4758 16.07705487155600
FENGYUN 3F              
1 57490U 23111A   26095.60603203  .00000124  00000+0  78809-4 0  9997
2 57490  98.6876 166.9538 0000801  87.9221 272.2047 14.19926328138569
METEOR 2-1 DEB          
1 57492U 75064F   26084.41871874  .00004836  00000+0  19210-2 0  9994
2 57492  81.2720  83.0815 0006418 351.0625   9.0440 14.28613992391022
HJ-2F                   
1 57519U 23116A   26095.59453253  .00010136  00000+0  45538-3 0  9996
2 57519  97.3872 102.1281 0006898 303.6385  56.4192 15.21320904147713
